{"type":"FeatureCollection","features":[{"type":"Feature","geometry":{"type":"Polygon","coordinates":[[[-0.8138611965982818,52.90644146627728],[-0.6970002434556658,52.95072708361165],[-0.6973627715898374,52.952034647079],[-0.6982666391063503,52.95745686969325],[-0.6985800368531727,52.96290309533253],[-0.6983013999868035,52.9683500071296],[-0.6974316985907763,52.973774276477116],[-0.6959744373407375,52.97915266298777],[-0.693935644260705,52.98446211422655],[-0.6913238485542479,52.9896798647844],[-0.6881500475409439,52.99478353426324],[-0.6844276627818999,52.99975122374438],[-0.6801724855254179,53.00456161031661],[-0.6754026116551586,53.009194039246225],[-0.6701383663746583,53.01362861338],[-0.6644022189132102,53.0178462793815],[-0.6582186875862135,53.02182891041413],[-0.6516142355945931,53.02555938489777],[-0.644617157994503,53.029021660982444],[-0.6372574603157091,53.03220084640008],[-0.6309733501555589,53.034556074516],[-0.6309454963825374,53.035099813275785],[-0.6300744911189895,53.040524085059296],[-0.6286150156378199,53.04590247561722],[-0.6265731065997215,53.05121193244582],[-0.6239573057491725,53.05642969004083],[-0.6207786268116706,53.061533367884145],[-0.6170505115617289,53.06650106691418],[-0.6127887751929393,53.07131146405639],[-0.6080115411748466,53.07594390439622],[-0.6027391658275292,53.08037849058495],[-0.5969941529017433,53.08459616907957],[-0.5917747050076207,53.08795268202278],[-0.5932192082801748,53.08841539012155],[-0.6009297584953401,53.091288363927724],[-0.6083119980962692,53.09445757911884],[-0.6153343882534728,53.09790952851121],[-0.6219669027426562,53.10162949652757],[-0.6281811557433912,53.10560162108464],[-0.6339505231068188,53.109808960368966],[-0.6392502565779523,53.11423356423482],[-0.6440575904811112,53.11885654993775],[-0.648351840401574,53.123658181898804],[-0.6521144934189351,53.12861795517637],[-0.6553292894811875,53.13371468230625],[-0.6579822935342463,53.13892658315428],[-0.6600619580573266,53.144231377412],[-0.6615591756878985,53.14960637935263],[-0.6624673216572319,53.155028594452666],[-0.66278228579813,53.16047481747465],[-0.6625024939231707,53.16592173159801],[-0.6616289184210018,53.17134600817745],[-0.66016507795689,53.17672440670369],[-0.6581170262135174,53.18203387453773],[-0.6554933296554282,53.18725164598794],[-0.6523050343471368,53.192355340299784],[-0.6485656219089151,53.19732305813038],[-0.6442909547388354,53.202133476083695],[-0.6394992106874042,53.20676593888892],[-0.6342108074177304,53.21120054881259],[-0.6284483167355575,53.215418251904865],[-0.622236369226016,53.21940092069303],[-0.6156015495819247,53.22313143294916],[-0.6085722830566738,53.22659374617485],[-0.601178713523268,53.22977296746415],[-0.5934525736627165,53.23265541842524],[-0.5854270478519084,53.23522869486296],[-0.5771366283574935,53.23748172094767],[-0.5686169654801461,53.2394047976197],[-0.5599047123296259,53.240989645005705],[-0.5510373649381108,53.24222943864963],[-0.542053098446786,53.24311883938959],[-0.5329906001256859,53.24365401674166],[-0.5276466850079442,53.24375890755919],[-0.5277355197052884,53.243780391728244],[-0.4755320216047494,53.3209612428325],[-0.37215149114831547,53.29600434026395],[-0.4245414476503129,53.21882348912309],[-0.4247009525033183,53.21886206446954],[-0.41932948326439146,53.215418251904865],[-0.4135669925822185,53.21120054881259],[-0.4082785893125447,53.20676593888892],[-0.40348684526122724,53.202133476083695],[-0.3992121780910338,53.19732305813038],[-0.3954727656528121,53.192355340299784],[-0.39228447034463443,53.18725164598794],[-0.3896607737864315,53.18203387453773],[-0.38761272204305897,53.17672440670369],[-0.3861488815789471,53.17134600817745],[-0.38527530607689187,53.16592173159801],[-0.38499551420193256,53.16047481747465],[-0.38531047834271703,53.155028594452666],[-0.38621862431216414,53.14960637935263],[-0.3877158419426223,53.144231377412],[-0.3897955064657026,53.13892658315428],[-0.3924485105188751,53.13371468230625],[-0.39566330658112747,53.12861795517637],[-0.3994259595984886,53.123658181898804],[-0.4037202095188377,53.11885654993775],[-0.4085275434221103,53.11423356423482],[-0.41382727689313015,53.109808960368966],[-0.4195966442566714,53.10560162108464],[-0.4247921580150464,53.102280670395345],[-0.42340086767057983,53.101833214552634],[-0.4156982203739972,53.09895078613029],[-0.4083271236215751,53.09577158863022],[-0.40131921330271325,53.09230930003555],[-0.3947045415042112,53.088578812829205],[-0.3885114470982671,53.08459616907957],[-0.38276643417248124,53.08037849058495],[-0.37749405882516385,53.07594390439622],[-0.3734626187429087,53.07203465364696],[-0.3021945996680386,53.07717751620497],[-0.3035654054220913,53.082106573900624],[-0.30447208391353797,53.087528791575735],[-0.30478651073315177,53.09297501549474],[-0.3045071148999341,53.09842192882104],[-0.3036348680134324,53.10384620292236],[-0.3021732839424658,53.10922459733121],[-0.3001284075710373,53.114534059478494],[-0.29750879258574514,53.11975182376939],[-0.2943254683343639,53.12485550957156],[-0.2905918958397251,53.12982321768743],[-0.28632391309872673,53.13463362488711],[-0.281539669850531,53.139266076083885],[-0.2762595520479181,53.14370067374309],[-0.27050609631635325,53.14791836412509],[-0.2643038947361447,53.15190101997518],[-0.25767949033195237,53.15563151928738],[-0.2506612637031367,53.159093819785554],[-0.24327931127459124,53.16227302878231],[-0.23556531569158778,53.165155468096984],[-0.22755240892649908,53.16772873373465],[-0.2192750287039189,53.169981750051264],[-0.21076876888741936,53.17190481815516],[-0.20207022450642853,53.17348965832039],[-0.19321683212979224,53.17472944621508],[-0.18424670632077778,53.1756188427763],[-0.1751984729301057,53.17615401759199],[-0.16611109999996643,53.17633266568088],[-0.15702372706994083,53.17615401759199],[-0.14797549367915508,53.1756188427763],[-0.1390053678702543,53.17472944621508],[-0.130151975493618,53.17348965832039],[-0.1214534311125135,53.17190481815516],[-0.11294717129612764,53.169981750051264],[-0.10466979107343377,53.16772873373465],[-0.09665688430845876,53.165155468096984],[-0.0889428887254553,53.16227302878231],[-0.08156093629690986,53.159093819785554],[-0.07454270966809418,53.15563151928738],[-0.06791830526390186,53.15190101997518],[-0.062266246163295375,53.14827163032208],[0.06977043259007587,53.17378640996369],[0.10409208115390811,53.110425455344966],[-0.028029280610326168,53.08489825017142],[-0.028152059449151903,53.085125046007846],[-0.028656794577955225,53.082106573900624],[-0.030151621746085766,53.07673156775149],[-0.03222798391516335,53.071426767724404],[-0.034876788673159353,53.06621485964534],[-0.03808650723021856,53.0611181239468],[-0.04184322695095943,53.0561583409098],[-0.04613071378184941,53.05135669816562],[-0.05093048426010682,53.046733700840264],[-0.05622188675238249,53.04230908471136],[-0.06198219154225626,53.03810173273283],[-0.06818668935238748,53.03412959526707],[-0.07480879786032801,53.03040961434778],[-0.08182017574154088,53.026957652278305],[-0.0891908437473603,53.02378842485198],[-0.09688931230516573,53.020915439461014],[-0.10488271510905633,53.01835093833974],[-0.11313694814941755,53.01610584716735],[-0.12161681361624233,53.01418972923242],[-0.1302861680959495,53.01261074533993],[-0.139108074470073,53.01137561961772],[-0.14804495691487318,53.01048961135635],[-0.15705875838978045,53.00995649299209],[-0.16611109999996643,53.00977853431911],[-0.1751634416101524,53.00995649299209],[-0.18417724308505967,53.01048961135635],[-0.19311412552985985,53.01137561961772],[-0.20193603190409704,53.01261074533993],[-0.21060538638380422,53.01418972923242],[-0.219085251850629,53.01610584716735],[-0.2227412018780336,53.01710023890467],[-0.22248176104926642,53.01583005957566],[-0.36001368350571283,53.00590566721161],[-0.36006200563928736,53.00614229884774],[-0.3617110605999869,53.00289272550402],[-0.36491603450394905,52.99779598179162],[-0.36866720986165546,52.99283618962706],[-0.37294837691331395,52.988034536797876],[-0.3777410797217726,52.98341152860256],[-0.383024697286487,52.978986901004525],[-0.38877653349265984,52.974779537153566],[-0.3949719154854847,52.9708073876148],[-0.40158430002804835,52.96708739462786],[-0.408585387375183,52.96363542070193],[-0.41594524217509843,52.96046618183245],[-0.4223421679942324,52.958075403052625],[-0.42237776089359613,52.95745686969325],[-0.4232816284101091,52.952034647079],[-0.42477187643680736,52.94665963285753],[-0.42684191254318193,52.941354821764065],[-0.42948267295446385,52.93614289981482],[-0.43268266475979544,52.93104614768028],[-0.4364280182676339,52.92608634592311],[-0.44070254922678487,52.92128468249504],[-0.4454878306032697,52.916661662875875],[-0.4507632735617335,52.912237023224264],[-0.45650621727054386,52.9080296468959],[-0.46269202712107926,52.90405748466887],[-0.4692942009177159,52.90033747899931],[-0.4762844825764887,52.896885492612704],[-0.4836329828402768,52.89371624171689],[-0.4913083064999455,52.89084323410399],[-0.4992776855903003,52.88827871238693],[-0.5075071180118584,52.886033602595596],[-0.5159615110139839,52.88411746833556],[-0.5246048289619694,52.882538470689695],[-0.5334002447956436,52.88130333401988],[-0.5423102945818528,52.88041731780299],[-0.5512970345506574,52.87988419461062],[-0.5603221999999732,52.879706234319094],[-0.5693473654494028,52.87988419461062],[-0.5783341054182074,52.88041731780299],[-0.5872441552044165,52.88130333401988],[-0.5960395710379771,52.882538470689695],[-0.6046828889859626,52.88411746833556],[-0.6131372819882017,52.886033602595596],[-0.6213667144096462,52.88827871238693],[-0.629336093500001,52.89084323410399],[-0.6370114171596697,52.89371624171689],[-0.6385892325770829,52.894396719739],[-0.638422860292394,52.894236198273475],[-0.7553633636880477,52.849943106248105],[-0.8138611965982818,52.90644146627728]]]},"properties":{"source":"UK MIL AIP ENR 6-17 chart reproduction","airspace_type":"MATZ","name":"Barkston Heath / Coningsby / Cranwell / Waddington","members":["Barkston Heath","Coningsby","Cranwell","Waddington"],"chart_geometry":true,"internal_boundaries":false}},{"type":"Feature","geometry":{"type":"Polygon","coordinates":[[[-1.0785610290415661,51.4523370749903],[-1.18443981576047,51.461609014032646],[-1.165966263004293,51.54407976969978],[-1.165823271391557,51.544067270380985],[-1.170243497571164,51.545773012946995],[-1.1773720034809685,51.54894249905071],[-1.1841529267252326,51.552394729137966],[-1.1905572711722243,51.556114982846175],[-1.196557626673325,51.56008739321949],[-1.2021282861787768,51.564295013567595],[-1.2072453560158465,51.568719888946546],[-1.2118868588548821,51.57334313197417],[-1.2160328289128302,51.57814500267329],[-1.219665398967436,51.58310499201894],[-1.2227688787859279,51.588201908848156],[-1.2253298245988162,51.593413969776186],[-1.227337099285137,51.598718891748035],[-1.2287819229651404,51.604093986841775],[-1.2296579137369008,51.609516258928245],[-1.229961118328447,51.61496250178195],[-1.2296900324774924,51.62040939822923],[-1.2288456108930177,51.62583361991346],[-1.227431266696044,51.631211927251535],[-1.2254528602819619,51.63652126915281],[-1.2229186775905418,51.64173888207031],[-1.219839397821488,51.64684238795433],[-1.2162280506753405,51.651809890680994],[-1.212099963254218,51.65662007053281],[-1.2074726968006644,51.66125227631423],[-1.202365973504925,51.665686614694074],[-1.1968015936585061,51.669904036376465],[-1.1908033434809795,51.67388641871451],[-1.1843968939921297,51.67761664439498],[-1.177609691351222,51.68107867583865],[-1.170470839125528,51.6842576249784],[-1.163010972996858,51.68713981809763],[-1.1552621284529323,51.689712855432056],[-1.147257602048171,51.69196566526207],[-1.1390318068559964,51.6938885522463],[-1.1318679932583788,51.69523815191426],[-1.131929485492833,51.695243509259456],[-1.1132650698000361,51.77770587992108],[-1.006646323676705,51.76843394093424],[-1.0255050856569596,51.68597157025798],[-1.0257047123118315,51.685988962192255],[-1.021223560874546,51.6842576249784],[-1.014084708648852,51.68107867583865],[-1.0072975060078306,51.67761664439498],[-1.0008910565189808,51.67388641871451],[-0.9948928063414542,51.669904036376465],[-0.989328426495149,51.665686614694074],[-0.9842217031992959,51.66125227631423],[-0.9795944367457423,51.65662007053281],[-0.9754663493247335,51.651809890680994],[-0.9718550021784722,51.64684238795433],[-0.9687757224094184,51.64173888207031],[-0.9662415397179984,51.63652126915281],[-0.9642631333039162,51.631211927251535],[-0.9628487891070563,51.62583361991346],[-0.9620043675224679,51.62040939822923],[-0.9617332816715134,51.61496250178195],[-0.9620364862631732,51.609516258928245],[-0.9629124770349335,51.604093986841775],[-0.9643573007148234,51.598718891748035],[-0.9663645754011441,51.593413969776186],[-0.9689255212141461,51.588201908848156],[-0.9720290010325243,51.58310499201894],[-0.9756615710871301,51.57814500267329],[-0.9798075411450782,51.57334313197417],[-0.9844490439841138,51.568719888946546],[-0.9895661138211835,51.564295013567595],[-0.9951367733266352,51.56008739321949],[-1.001137128827736,51.556114982846175],[-1.0075414732747277,51.552394729137966],[-1.0143223965189918,51.54894249905071],[-1.02145090242891,51.545773012946995],[-1.028896532344902,51.54289978262741],[-1.0366274943606868,51.54033505449903],[-1.0446107978941654,51.53808975810731],[-1.0528123929999538,51.53617346023514],[-1.0600104059488582,51.53481785559028],[-1.0598957213577478,51.534807830671774],[-1.0785610290415661,51.4523370749903]]]},"properties":{"source":"UK MIL AIP ENR 6-17 chart reproduction","airspace_type":"MATZ","name":"Benson","members":["Benson"],"chart_geometry":true,"internal_boundaries":false}},{"type":"Feature","geometry":{"type":"Polygon","coordinates":[[[-1.5299328625098951,51.220816485231694],[-1.5217918458027953,51.21889365373472],[-1.5138697979033395,51.21664090716371],[-1.5062007750249222,51.21406793977257],[-1.4988177288236102,51.21118582207885],[-1.4917523633807832,51.20800695255084],[-1.4850349979247994,51.204545003537746],[-1.4786944359077552,51.2008148616913],[-1.4727578410140723,51.196832563151915],[-1.4673670522000184,51.19270438517744],[-1.338498352034776,51.21263848883563],[-1.3127877460148056,51.14799578529486],[-1.4417442126834885,51.128049825221844],[-1.4418343208211744,51.128276476959456],[-1.4425334828640644,51.12564792469943],[-1.4445198796880732,51.12034296537374],[-1.4470542724607185,51.11513085762186],[-1.450125642347416,51.110033885302094],[-1.453720687213945,51.10507383275002],[-1.4578238811343454,51.100271892210564],[-1.4624175431006279,51.095648573903276],[-1.4674819146031268,51.091223619092034],[-1.4729952457164472,51.08701591651591],[-1.4789338893007198,51.08304342252271],[-1.4852724028944522,51.079323085229696],[-1.4919836578552577,51.07587077301845],[-1.4990389552773422,51.07270120765182],[-1.5064081481931453,51.069827902281354],[-1.5140597695510678,51.06726310459296],[-1.5219611654368919,51.06501774531697],[-1.5300786329980838,51.06310139230723],[-1.5383775625103908,51.06152221037066],[-1.546822583017729,51.06028692700609],[-1.5553777109652174,51.05940080418692],[-1.5640065012365767,51.058867616298876],[-1.5726722000000564,51.0586896343191],[-1.5813378987634223,51.058867616298876],[-1.5899666890347817,51.05940080418692],[-1.5985218169822701,51.06028692700609],[-1.6069668374896082,51.06152221037066],[-1.6152657670019153,51.06310139230723],[-1.6233832345631072,51.06501774531697],[-1.6312846304489312,51.06726310459296],[-1.6389362518068538,51.069827902281354],[-1.6463054447226568,51.07270120765182],[-1.6533607421447414,51.07587077301845],[-1.6600719971055469,51.079323085229696],[-1.6664105106992793,51.08304342252271],[-1.6715171333791186,51.08645935877706],[-1.677460205650391,51.08379009849246],[-1.684831166564436,51.080916794863604],[-1.692484623086557,51.07835199878939],[-1.7003879135152147,51.07610664097266],[-1.7085073269689701,51.074190289242416],[-1.7168082454868454,51.072611108383796],[-1.725255289701181,51.071375825877276],[-1.7338124675051176,51.07048970368165],[-1.7424433251246683,51.06995651617203],[-1.7511111000000028,51.06977853431911],[-1.7597788748752237,51.06995651617203],[-1.768409732494888,51.07048970368165],[-1.7769669102988246,51.071375825877276],[-1.7854139545131602,51.072611108383796],[-1.7937148730309218,51.074190289242416],[-1.801834286484791,51.07610664097266],[-1.8097375769134487,51.07835199878939],[-1.8102739166384054,51.07853173483637],[-1.810145329253828,51.078435511245964],[-1.9115566130493562,51.02478151550815],[-1.9796778476559211,51.075816655589456],[-1.8783456027463217,51.12947065130634],[-1.8783373130100913,51.129464447990316],[-1.8792941902659095,51.13143183762968],[-1.8812810699544116,51.13673679608861],[-1.8827111347176242,51.142111917792185],[-1.8835780709702021,51.14753420615268],[-1.883877969520995,51.15298045466254],[-1.88360934567379,51.15842734604756],[-1.8827731490127917,51.16385155203394],[-1.8813727627724575,51.16922983330356],[-1.8794139927359765,51.17453913920852],[-1.8769050456511422,51.179756706815006],[-1.8738564971996539,51.184860158846426],[-1.870281249603977,51.189827600099],[-1.8661944790018197,51.194637711906495],[-1.861613572768988,51.19926984423798],[-1.8565580570176508,51.20370410502031],[-1.8510495145472987,51.20792144628742],[-1.845111493570812,51.21190374677135],[-1.8387694075863692,51.215633890563126],[-1.832050426812316,51.21909584148901],[-1.824983361642012,51.222274712864376],[-1.8175985386232014,51.22515683230831],[-1.8099276695022581,51.22772980132243],[-1.802003713912427,51.22998254936133],[-1.7938607363207666,51.23190538214587],[-1.7855337578782837,51.23349002399684],[-1.7770586038476495,51.2347296539934],[-1.7684717473067622,51.23561893578885],[-1.7598101498463166,51.23615404094559],[-1.7511111000000028,51.2363326656809],[-1.742412050153689,51.23615404094559],[-1.7337504526932435,51.23561893578885],[-1.7251635961522425,51.2347296539934],[-1.716688442121722,51.23349002399684],[-1.708361463679239,51.23190538214587],[-1.7002184860875786,51.22998254936133],[-1.6922945304977475,51.22772980132243],[-1.6919474987229557,51.22761339964886],[-1.5899884206535262,51.280995807129585],[-1.5215636136017565,51.22996066712882],[-1.536612152979136,51.22208787387724],[-1.5299328625098951,51.220816485231694]]]},"properties":{"source":"UK MIL AIP ENR 6-17 chart reproduction","airspace_type":"MATZ","name":"Boscombe Down / Middle Wallop","members":["Boscombe Down","Middle Wallop"],"chart_geometry":true,"internal_boundaries":false}},{"type":"Feature","geometry":{"type":"Polygon","coordinates":[[[-5.102646671844809,50.00704145017519],[-5.102383922697754,50.0015945709978],[-5.102675966200877,49.99614830889075],[-5.103521363986374,49.99072598136974],[-5.104916311549118,49.98535079562079],[-5.106854657686654,49.980045749335005],[-5.109327933871896,49.97483353257048],[-5.1123253933809565,49.969736431055544],[-5.11583405996123,49.96477623133942],[-5.1198387857847365,49.95997412818616],[-5.1243223184006865,49.95535063459675],[-5.129265376364401,49.950925494831175],[-5.134646733188902,49.94671760078808],[-5.140443309239004,49.94274491208441],[-5.146630271155459,49.93902438016031],[-5.153181138376453,49.935571876717546],[-5.1600678962958,49.93240212677987],[-5.16726111557864,49.92952864664508],[-5.174730077136587,49.92696368697725],[-5.182442902241519,49.92471818126627],[-5.190366687250503,49.92280169986011],[-5.198467642390369,49.92122240975214],[-5.206711234047361,49.91998704028291],[-5.215062329990815,49.919100854891674],[-5.223485346956068,49.91856762902923],[-5.231944399999975,49.91838963431911],[-5.240403453043996,49.91856762902923],[-5.248826470009135,49.919100854891674],[-5.257177565952702,49.91998704028291],[-5.26542115760958,49.92122240975214],[-5.273522112749447,49.92280169986011],[-5.281445897758431,49.92471818126627],[-5.289158722863476,49.92696368697725],[-5.29662768442131,49.92952864664508],[-5.303820903704263,49.93240212677987],[-5.310707661623496,49.935571876717546],[-5.317258528844491,49.93902438016031],[-5.32344549076106,49.94274491208441],[-5.329242066811048,49.94671760078808],[-5.334623423635662,49.950925494831175],[-5.339566481599263,49.95535063459675],[-5.344050014215327,49.95997412818616],[-5.3480547400387195,49.96477623133942],[-5.351563406618993,49.969736431055544],[-5.354560866128168,49.97483353257048],[-5.35703414231341,49.980045749335005],[-5.358972488450945,49.98535079562079],[-5.360367436013689,49.99072598136974],[-5.3612128337990725,49.99614830889075],[-5.361504877302309,50.0015945709978],[-5.361242128155254,50.00704145017519],[-5.36042552349727,50.01246561834913],[-5.359058375180894,50.01784383684001],[-5.357146358760247,50.02315305606645],[-5.354697492257515,50.02837051457119],[-5.352877364654716,50.0314923593262],[-5.356930159078502,50.0346558601435],[-5.361881860584958,50.039080986628946],[-5.366373239777431,50.04370446763284],[-5.370384981224333,50.04850655911035],[-5.373899801945754,50.053466748260185],[-5.376902527180846,50.058563840499154],[-5.379380157465675,50.063776049437],[-5.381321926697069,50.069081089479624],[-5.3827193508965365,50.07445627067621],[-5.383566267417223,50.079878595414066],[-5.383858864380159,50.08532485655538],[-5.38359570016064,50.090771736601596],[-5.38277771278706,50.096195907464676],[-5.381408219158288,50.101574130419586],[-5.379492904026165,50.106883355809096],[-5.377039798736064,50.112100822070964],[-5.3740592497639454,50.11720415365804],[-5.370563877132668,50.12217145742432],[-5.366568522839884,50.126981417054886],[-5.362090189474429,50.131613385123316],[-5.3571479692466255,50.13604747236981],[-5.351762963703322,50.14026463380221],[-5.345958194446666,50.14424675123603],[-5.339758505218242,50.14797671190245],[-5.3331904557574035,50.15143848277048],[-5.326282207881604,50.154617180246866],[-5.319063404280314,50.1574991349373],[-5.311565040552182,50.16007195117384],[-5.303819331048999,50.162324561036506],[-5.295859569126719,50.16424727262126],[-5.287719982432691,50.16583181233257],[-5.279435583884947,50.16707136100593],[-5.27104201902489,50.16796058369319],[-5.262575410443787,50.1684956529734],[-5.254072199999996,50.16867426568089],[-5.2455689895562045,50.1684956529734],[-5.237102380975102,50.16796058369319],[-5.228708816115045,50.16707136100593],[-5.220424417567301,50.16583181233257],[-5.212284830873273,50.16424727262126],[-5.204325068950993,50.162324561036506],[-5.19657935944781,50.16007195117384],[-5.189080995719678,50.1574991349373],[-5.181862192118388,50.154617180246866],[-5.1749539442425885,50.15143848277048],[-5.16838589478175,50.14797671190245],[-5.162186205553326,50.14424675123603],[-5.15638143629667,50.14026463380221],[-5.150996430753366,50.13604747236981],[-5.146054210525563,50.131613385123316],[-5.141575877160108,50.126981417054886],[-5.137580522867324,50.12217145742432],[-5.1340851502360465,50.11720415365804],[-5.131104601263928,50.112100822070964],[-5.128651495973827,50.106883355809096],[-5.126736180841704,50.101574130419586],[-5.1253666872129315,50.096195907464676],[-5.124548699839352,50.090771736601596],[-5.124326620336689,50.08617521351064],[-5.005134269148925,50.053472047087126],[-5.0456508013265875,49.9921464953531],[-5.1027628071393485,50.00781286062753],[-5.102646671844809,50.00704145017519]]]},"properties":{"source":"UK MIL AIP ENR 6-17 chart reproduction","airspace_type":"MATZ","name":"Culdrose / Predannack","members":["Culdrose","Predannack"],"chart_geometry":true,"internal_boundaries":false}},{"type":"Feature","geometry":{"type":"Polygon","coordinates":[[[-1.7814768826629006,51.766709534759016],[-1.7727138602086825,51.76617441114903],[-1.7640264616641161,51.76528509895111],[-1.7554520851170992,51.76404542712582],[-1.747027634173719,51.76246073273933],[-1.7387893567155288,51.76053783761598],[-1.730772686703176,51.75828501850686],[-1.723012089754775,51.75571197091288],[-1.7155409132075192,51.75282976672998],[-1.7083912413445432,51.74965080591251],[-1.701593756441298,51.74618876237771],[-1.6951776062525141,51.742458524400284],[-1.689170278526717,51.73847612977054],[-1.6835974830961504,51.734258696012546],[-1.6784830420507433,51.729824345980305],[-1.673848788460191,51.72519212916937],[-1.6697144740645626,51.72038193909984],[-1.669073764916612,51.719501950953415],[-1.5348599209936538,51.722190637888545],[-1.5311094012461126,51.65560956948104],[-1.6653682504653489,51.652919985424916],[-1.6653806080082885,51.65313937563002],[-1.666272377701489,51.6516770316583],[-1.6699104728370457,51.64671705158397],[-1.6740627410453044,51.64191519112915],[-1.678711287684564,51.63729195914361],[-1.6838361164524258,51.63286709541578],[-1.689415216536645,51.628659487128814],[-1.6954246579661003,51.624687089020746],[-1.7018386947351019,51.62096684757258],[-1.708629875249244,51.61751462953105],[-1.7157691596167979,51.61434515505337],[-1.7232260432896283,51.611471935741974],[-1.7309686865349931,51.6089072178164],[-1.7389640492058334,51.60666193064827],[-1.747178030257487,51.604745640863435],[-1.7555756114487622,51.60316651219234],[-1.7641210046494962,51.60193127122702],[-1.7727778021713902,51.601045179219234],[-1.781509129524352,51.60051201003027],[-1.7902778000000126,51.6003340343191],[-1.7990464704756732,51.60051201003027],[-1.807777797828635,51.601045179219234],[-1.816434595350529,51.60193127122702],[-1.824979988551263,51.60316651219234],[-1.8333775697424244,51.604745640863435],[-1.8415915507941918,51.60666193064827],[-1.849586913465032,51.6089072178164],[-1.857329556710397,51.611471935741974],[-1.8647864403832273,51.61434515505337],[-1.8719257247507812,51.61751462953105],[-1.8787169052649233,51.62096684757258],[-1.8851309420339248,51.624687089020746],[-1.8911403834633802,51.628659487128814],[-1.8967194835475993,51.63286709541578],[-1.9018443123154611,51.63729195914361],[-1.9064928589547208,51.64191519112915],[-1.9106451271629794,51.64671705158397],[-1.9142832222984225,51.6516770316583],[-1.9173914299337866,51.656773940347925],[-1.919956285442595,51.661985994407516],[-1.921966634283649,51.66729091089996],[-1.923413682680689,51.67266600199745],[-1.9242910384302832,51.67808827163974],[-1.9245947416115996,51.68353451364366],[-1.9243232850078584,51.68898141085067],[-1.923477624095085,51.69440563489175],[-1.922061176493571,51.699783946144],[-1.9200798108244044,51.7050932934503],[-1.9175418249583345,51.7103109131716],[-1.9144579136919901,51.71541442714212],[-1.9108411259353488,51.72038193909984],[-1.9067068115397205,51.72519212916937],[-1.9020725579492819,51.729824345980305],[-1.8969581169038747,51.734258696012546],[-1.891385321473308,51.73847612977054],[-1.8853779937473973,51.742458524400284],[-1.8789618435587272,51.74618876237771],[-1.872164358655482,51.74965080591251],[-1.865014686792506,51.75282976672998],[-1.8575435102452502,51.75571197091288],[-1.849782913296849,51.75828501850686],[-1.8417662432844963,51.76053783761598],[-1.8335279658263062,51.76246073273933],[-1.825103514882926,51.76404542712582],[-1.816529138335909,51.76528509895111],[-1.8078417397913427,51.76617441114903],[-1.7990787173370109,51.766709534759016],[-1.7902778000000126,51.76688816568088],[-1.7814768826629006,51.766709534759016]]]},"properties":{"source":"UK MIL AIP ENR 6-17 chart reproduction","airspace_type":"MATZ","name":"Fairford","members":["Fairford"],"chart_geometry":true,"internal_boundaries":false}},{"type":"Feature","geometry":{"type":"Polygon","coordinates":[[[0.7286023055576152,52.29329960934278],[0.5958828852474198,52.3122437166559],[0.5959636937725286,52.31245754718557],[0.594470897726751,52.31118810705453],[0.5888064620420437,52.306980620080196],[0.5827051610896206,52.303008345336835],[0.5761931347259406,52.299288227200414],[0.5692982535608735,52.295836130314434],[0.562049999883584,52.292666772770545],[0.5544793421560144,52.2897936641783],[0.5466186036014733,52.28722904887082],[0.53850132542766,52.28498385447195],[0.5301621252434643,52.2830676460278],[0.5216365512394532,52.281488585884055],[0.512960932717192,52.280253399466304],[0.5041722275590246,52.279367347097896],[0.49530786724153586,52.278834201965644],[0.4864056000000119,52.2786562343191],[0.4775033327584879,52.278834201965644],[0.46863897244099917,52.279367347097896],[0.45985026728283174,52.280253399466304],[0.45117464876057056,52.281488585884055],[0.44264907475655946,52.2830676460278],[0.43430987457225,52.28498385447195],[0.42619259639855045,52.28722904887082],[0.4183318578440094,52.2897936641783],[0.4107612001164398,52.292666772770545],[0.40351294643915026,52.295836130314434],[0.39661806527408316,52.299288227200414],[0.39459054427770096,52.30044648688939],[0.37499854606357985,52.29233680788564],[0.31405084149116647,52.34756865512468],[0.32189389865633394,52.35081697146666],[0.21927199205777015,52.365104241869275],[0.24383302017122332,52.430018384654396],[0.37682888216196636,52.411500944474575],[0.37809203581900874,52.41257970225085],[0.3837499123397947,52.41679725746886],[0.3898490142572655,52.42077977573322],[0.3963632393492844,52.42451013739871],[0.4032646793925778,52.427972302551986],[0.4105237398813415,52.43115138082994],[0.41810926745210963,52.43403369629763],[0.42598868445941207,52.43660684708847],[0.43319728128096713,52.43860211042604],[0.43479532225853745,52.441204394572694],[0.43847104295184636,52.44617200597926],[0.4426728092759049,52.450982306128815],[0.44738275000452177,52.455614641766886],[0.4525807933350734,52.460049117338144],[0.4582447511550072,52.46426668119545],[0.46435041281881695,52.46824920825386],[0.4708716480578232,52.471979578717246],[0.4777805185941588,52.475441752521235],[0.48504739798841,52.478620839154196],[0.49264109920318333,52.481503162537656],[0.5005290093263284,52.48407632066896],[0.5086772308557101,52.486329239752216],[0.5170507289136594,52.488252222567645],[0.5256134837256923,52.48983699085617],[0.5343286476664844,52.49107672152236],[0.5431587061542587,52.49196607648784],[0.5520656416499605,52.4925012260563],[0.5610110999999733,52.49267986568089],[0.5699565583500998,52.4925012260563],[0.5788634938458017,52.49196607648784],[0.587693552333576,52.49107672152236],[0.5964087162742544,52.48983699085617],[0.6049714710862872,52.488252222567645],[0.6133449691443502,52.486329239752216],[0.621493190673732,52.48407632066896],[0.629381100796877,52.481503162537656],[0.634260011211313,52.47965128593946],[0.7477396057786336,52.52606400789403],[0.8089344470614606,52.47083216071847],[0.6953861471789651,52.42441772414527],[0.6952235839907684,52.42456460156988],[0.6963927823196627,52.42019534151918],[0.6972518632796891,52.41477109209306],[0.6975273308347596,52.40932418670782],[0.6972182212905409,52.40387795386614],[0.6963260739572661,52.398455710563525],[0.6948549208708528,52.3930806625265],[0.6928112659129511,52.38777580507319],[0.6902040534786238,52.38256382501667],[0.6870446268882233,52.377467004024425],[0.6833466767733398,52.37250712383904],[0.6799629334076246,52.368657366391645],[0.7531234519244663,52.358213752132755],[0.7286023055576152,52.29329960934278]]]},"properties":{"source":"UK MIL AIP ENR 6-17 chart reproduction","airspace_type":"CMATZ","name":"Lakenheath/Mildenhall CMATZ","members":["Lakenheath","Mildenhall"],"chart_geometry":true,"internal_boundaries":false}},{"type":"Feature","geometry":{"type":"Polygon","coordinates":[[[-1.3711991219897754,54.29034560320248],[-1.3619078445607329,54.289810385465934],[-1.3526967919814297,54.288920918191195],[-1.343605636721918,54.2876810330073],[-1.3346735256188822,54.28609607065132],[-1.325938908503531,54.28417285755739],[-1.3174393700920746,54.28191967594557],[-1.309211465917656,54.279346227550256],[-1.3012905630607747,54.27646359115766],[-1.2937106864075076,54.27328417415009],[-1.2865043711334465,54.269821658282225],[-1.2797025220746718,54.2660909399405],[-1.2733342806117207,54.262108065161314],[-1.2674268996480578,54.257890159707365],[-1.2620056272227202,54.25345535452194],[-1.2570935992472414,54.248822706901734],[-1.2527117418130729,54.244012117745896],[-1.2488786834613848,54.239044245255464],[-1.2456106777574405,54.233940415471274],[-1.2429215364614947,54.22872253005045],[-1.2408225735316591,54.22341297169169],[-1.2393225601449558,54.21803450762796],[-1.238427690868889,54.21261019161068],[-1.2381415610627755,54.207163264814],[-1.238465155539643,54.2017170560897],[-1.2393968484653897,54.19629488200341],[-1.240932414426652,54.19091994708095],[-1.2430650505493759,54.18561524469029],[-1.2457854095048333,54.180403458978894],[-1.2490816431958365,54.175306868279506],[-1.2529394568749694,54.17034725038831],[-1.2573421734048225,54.16554579010951],[-1.2622708073356534,54.160922989448274],[-1.2677041484377014,54.15649858082101],[-1.2736188542930904,54.15229144363756],[-1.279989551522931,54.148319524593845],[-1.2867889451952124,54.144599761997085],[-1.2939879359319093,54.141148014427664],[-1.3015557442128056,54.13797899402272],[-1.3094600413478474,54.135106204646995],[-1.3176670865733513,54.132541885196176],[-1.3261418697076124,54.130296958255975],[-1.3348482587856552,54.12838098431922],[-1.3437491520824096,54.12680212174013],[-1.3528066339155203,54.12556709258225],[-1.3619821336159248,54.124681154493224],[-1.371236587040812,54.1241480787156],[-1.3805306000000428,54.12397013431911],[-1.3898246129591598,54.1241480787156],[-1.3990790663841608,54.124681154493224],[-1.4082545660845653,54.12556709258225],[-1.4173120479175623,54.12680212174013],[-1.4262129412143167,54.12838098431922],[-1.4349193302924732,54.130296958255975],[-1.4433941134266206,54.132541885196176],[-1.4516011586521245,54.135106204646995],[-1.4595054557871663,54.13797899402272],[-1.4670732640680626,54.141148014427664],[-1.4742722548047595,54.144599761997085],[-1.481071648477041,54.148319524593845],[-1.4874423457068815,54.15229144363756],[-1.4933570515622705,54.15649858082101],[-1.4987903926643185,54.160922989448274],[-1.5037190265951494,54.16554579010951],[-1.5081217431250025,54.17034725038831],[-1.5119795568041354,54.175306868279506],[-1.5152757904951386,54.180403458978894],[-1.517996149450596,54.18561524469029],[-1.5201287855734336,54.19091994708095],[-1.521664351534696,54.19629488200341],[-1.5225960444603288,54.2017170560897],[-1.5229196389371964,54.207163264814],[-1.5227925174832595,54.209583219811215],[-1.5259646163879097,54.209400877591676],[-1.5352778000000171,54.209222934319115],[-1.5445909836121245,54.209400877591676],[-1.5538645268413802,54.209933950016676],[-1.563058954973826,54.210819882581355],[-1.5721351239924388,54.21205490413716],[-1.5810543843252844,54.21363375716577],[-1.589778742677595,54.21554971976614],[-1.5982710213162363,54.21779463377694],[-1.606495014183679,54.220358938925436],[-1.6144156392225568,54.22323171286941],[-1.6219990863075964,54.22640071697604],[-1.629212960188056,54.22985244765821],[-1.6360264178622401,54.23357219306662],[-1.6424102998171293,54.23754409491401],[-1.6483372545880002,54.24175121518647],[-1.6537818561088216,54.24617560747675],[-1.658720713349794,54.25079839265406],[-1.6631325717584104,54.25559983856658],[-1.6669984060507659,54.26055944345487],[-1.6703015039263391,54.265656022737325],[-1.6730275403091355,54.27086779881342],[-1.6751646417540087,54.27617249351575],[-1.6767034406910852,54.281547422829036],[-1.6776371192174793,54.28696959348205],[-1.677961442188007,54.29241580100856],[-1.6776747793961704,54.297862728864295],[-1.6767781166821578,54.303287048180245],[-1.6752750558495109,54.30866551772667],[-1.6731718033200877,54.3139750836591],[-1.6704771475053803,54.31919297861565],[-1.6672024249241986,54.32429681973492],[-1.6633614751445975,54.3292647051662],[-1.6589705846849938,54.33407530864736],[-1.6540484200579613,54.33870797173215],[-1.6486159501947668,54.34314279325652],[-1.642696358541457,54.347360715643724],[-1.6405208794075123,54.348718518056685],[-1.6407682355653606,54.34865434979713],[-1.6992049086317138,54.42469205079393],[-1.5945556681774633,54.451789509354434],[-1.536316942298275,54.37575721111885],[-1.5352778000000171,54.375777065680886],[-1.525926955824957,54.37559840206948],[-1.5166163964252064,54.37506318095338],[-1.5073862298809217,54.37417370811077],[-1.4982762117109587,54.37293381526649],[-1.4893255706616628,54.371348843289425],[-1.480572836964484,54.36942561877929],[-1.472055673863565,54.36717242415254],[-1.4638107131954712,54.36459896136743],[-1.4558733957785535,54.361716309457584],[-1.4482778173432962,54.35853687607208],[-1.441056580703389,54.355074343247004],[-1.4342406548302051,54.35134360766004],[-1.4278592414585773,54.347360715643724],[-1.4219396498052674,54.34314279325652],[-1.416507179942073,54.33870797173215],[-1.4115850153150404,54.33407530864736],[-1.4071941248554367,54.3292647051662],[-1.4033531750758357,54.32429681973492],[-1.4000784524945402,54.31919297861565],[-1.3973837966799465,54.3139750836591],[-1.3952805441505234,54.30866551772667],[-1.3937774833178764,54.303287048180245],[-1.3928808206038639,54.297862728864295],[-1.3925941578120273,54.29241580100856],[-1.3927272671955302,54.29018055592215],[-1.3898620780103101,54.29034560320248],[-1.3805306000000428,54.290524265680894],[-1.3711991219897754,54.29034560320248]]]},"properties":{"source":"UK MIL AIP ENR 6-17 chart reproduction","airspace_type":"MATZ","name":"Leeming / Topcliffe","members":["Leeming","Topcliffe"],"chart_geometry":true,"internal_boundaries":false}},{"type":"Feature","geometry":{"type":"Polygon","coordinates":[[[-2.986869532038554,56.3312074887575],[-3.1356646090135882,56.31936493683685],[-3.1523984425195977,56.38533823147922],[-3.0036808923657987,56.397175026604856],[-3.001285281292894,56.40157856926484],[-2.9978350080828022,56.40668270269592],[-2.9937877953686893,56.411650921865615],[-2.9891607904115745,56.41646189480484],[-2.9839736517790243,56.42109495674367],[-2.9782484678535184,56.425530199685674],[-2.9720096644019804,56.42974855883009],[-2.965283901563339,56.43373189545148],[-2.958099960667255,56.43746307586075],[-2.9504886213496775,56.44092604608704],[-2.94248252948546,56.444105901938386],[-2.9341160565060136,56.44698895411792],[-2.925425150718638,56.44956278809475],[-2.9164471812912325,56.45181631845123],[-2.907220775603264,56.45373983745339],[-2.8977856507073056,56.45532505761724],[-2.8881824396742104,56.45656514807145],[-2.8784525136295542,56.45745476454547],[-2.868637800311376,56.45799007284167],[-2.8587806000000455,56.45816876568088],[-2.8489233996886014,56.45799007284167],[-2.839108686370423,56.45745476454547],[-2.8293787603258806,56.45656514807145],[-2.8197755492926717,56.45532505761724],[-2.8103404243967134,56.45373983745339],[-2.8011140187088586,56.45181631845123],[-2.792136049281339,56.44956278809475],[-2.7834451434939638,56.44698895411792],[-2.7750786705145174,56.444105901938386],[-2.7670725786504136,56.44092604608704],[-2.759461239332836,56.43746307586075],[-2.7522772984366384,56.43373189545148],[-2.745551535597997,56.42974855883009],[-2.739312732146459,56.425530199685674],[-2.733587548220953,56.42109495674367],[-2.7306015829442765,56.4184279445325],[-2.5815880932725577,56.42976233542198],[-2.5648347389090986,56.36378904078126],[-2.713886363720462,56.35245212854589],[-2.7139358319056663,56.35264698808522],[-2.7164760031037076,56.34804162989016],[-2.7199586000463114,56.34294534511904],[-2.724034159974508,56.33798607563701],[-2.728685050596596,56.333185000283784],[-2.7338912046499217,56.328562614480965],[-2.739630208385165,56.32413864355516],[-2.7458773995643924,56.31993195944119],[-2.7526059745205202,56.315960501102374],[-2.759787103795361,56.312241198987394],[-2.7673900558476134,56.30878990382589],[-2.775382328299088,56.305621320045375],[-2.7837297861624393,56.30274894407305],[-2.7923968064762903,56.30018500776513],[-2.801346428755096,56.29794042718529],[-2.8105405106451826,56.296024756932056],[-2.8199398881648676,56.294446150192904],[-2.829504539895538,56.29321132467949],[-2.8391937544798793,56.29232553457596],[-2.848966300774464,56.29179254860829],[-2.8587806000000455,56.29161463431909],[-2.8685948992255135,56.29179254860829],[-2.878367445520098,56.29232553457596],[-2.8880566601044393,56.29321132467949],[-2.8976213118352234,56.294446150192904],[-2.9070206893547947,56.296024756932056],[-2.9162147712448814,56.29794042718529],[-2.925164393523687,56.30018500776513],[-2.933831413837538,56.30274894407305],[-2.9421788717008894,56.305621320045375],[-2.950171144152364,56.30878990382589],[-2.9577740962046164,56.312241198987394],[-2.964955225479457,56.315960501102374],[-2.971683800435585,56.31993195944119],[-2.977930991614926,56.32413864355516],[-2.9836699953500556,56.328562614480965],[-2.9869336887251787,56.331460348540965],[-2.986869532038554,56.3312074887575]]]},"properties":{"source":"UK MIL AIP ENR 6-17 chart reproduction","airspace_type":"MATZ","name":"Leuchars","members":["Leuchars"],"chart_geometry":true,"internal_boundaries":false}},{"type":"Feature","geometry":{"type":"Polygon","coordinates":[[[-3.3276707062144624,57.78975665241294],[-3.317496570440653,57.789221283182435],[-3.3074103568137616,57.7883315663181],[-3.297455542637863,57.787091337746595],[-3.2876750272672552,57.78550594411701],[-3.2834446676205205,57.78465504733661],[-3.174731086551219,57.844427537004165],[-3.0847441058962204,57.79814825998163],[-3.193607583852099,57.73837522356243],[-3.1937588535001575,57.73845314875965],[-3.1937521751816575,57.738445237579946],[-3.190176833183159,57.73334089994565],[-3.1872354108663785,57.72812258734035],[-3.184940252221736,57.722812689748075],[-3.183300914451479,57.717433980175095],[-3.1823241317083557,57.71200951653688],[-3.182013791168515,57.70656254249293],[-3.182370921454435,57.70111638766104],[-3.183393693373091,57.69569436764241],[-3.185077432874891,57.69031968428653],[-3.1874146460930888,57.685015326620764],[-3.190395056269267,57.679803972863766],[-3.1940056523258136,57.67470789393419],[-3.198230748799574,57.669748858856984],[-3.2030520568100656,57.66494804245885],[-3.2084487656936744,57.66032593573257],[-3.2143976349001377,57.65590225923576],[-3.2208730957113403,57.65169587987568],[-3.227847362310399,57.64772473141525],[-3.235290551701155,57.64400573901847],[-3.24317081194863,57.64055474813586],[-3.2514544581885048,57.63738645801109],[-3.260106115831377,57.63451436007066],[-3.269088870365408,57.63195068143799],[-3.2783644231470817,57.62970633379196],[-3.2878932525503615,57.62779086776859],[-3.297634779834425,57.62621243308196],[-3.3075475390752445,57.624977744518226],[-3.3175893504994747,57.62409205393334],[-3.3277174965492122,57.62355912836162],[-3.3378889000000527,57.6233812343191],[-3.3480603034507794,57.62355912836162],[-3.358188449500517,57.62409205393334],[-3.368230260924747,57.624977744518226],[-3.3781430201655667,57.62621243308196],[-3.38788454744963,57.62779086776859],[-3.39741337685291,57.62970633379196],[-3.4066889296345835,57.63195068143799],[-3.4156716841686148,57.63451436007066],[-3.424323341811487,57.63738645801109],[-3.4326069880513614,57.64055474813586],[-3.4404872482988367,57.64400573901847],[-3.4479304376895925,57.64772473141525],[-3.4549047042886514,57.65169587987568],[-3.461380165099854,57.65590225923576],[-3.467329034306431,57.66032593573257],[-3.472725743189926,57.66494804245885],[-3.4775470512004176,57.669748858856984],[-3.481772147674178,57.67470789393419],[-3.4853827437307245,57.679803972863766],[-3.488363153906903,57.685015326620764],[-3.4907003671251005,57.69031968428653],[-3.4923841066269006,57.69569436764241],[-3.4934068785455565,57.70111638766104],[-3.49376400883159,57.70656254249293],[-3.493453668291636,57.71200951653688],[-3.4924768855485127,57.717433980175095],[-3.4908375477782556,57.722812689748075],[-3.488542389133613,57.72812258734035],[-3.4856009668168326,57.73334089994565],[-3.482025624818334,57.738445237579946],[-3.477831445396305,57.74341368991214],[-3.4730361884301146,57.748224920986246],[-3.4676602188369543,57.752858261613945],[-3.4617264223028315,57.757293799024524],[-3.455260109636356,57.761512463368774],[-3.448288910112865,57.765496110685284],[-3.440842654235098,57.76922760195153],[-3.432953246391662,57.7726908778575],[-3.4246545279504517,57.77587102895838],[-3.4159821313785415,57.7787543608815],[-3.406973326027469,57.7813284542848],[-3.3976668562715986,57.78358221928736],[-3.38810277273285,57.78550594411701],[-3.3783222573621288,57.787091337746595],[-3.36836744318623,57.7883315663181],[-3.358281229559452,57.789221283182435],[-3.3481070937855293,57.78975665241294],[-3.3378889000000527,57.7899353656809],[-3.3276707062144624,57.78975665241294]]]},"properties":{"source":"UK MIL AIP ENR 6-17 chart reproduction","airspace_type":"MATZ","name":"Lossiemouth","members":["Lossiemouth"],"chart_geometry":true,"internal_boundaries":false}},{"type":"Feature","geometry":{"type":"Polygon","coordinates":[[[0.47500515501792506,52.578776532378775],[0.360195293935476,52.53326302159812],[0.30050791901498997,52.589136635063205],[0.41525561157354396,52.63465008308253],[0.41450275862837316,52.63738554060435],[0.4136056004819011,52.64280777504288],[0.41329465805506516,52.648254004799284],[0.41357148156316725,52.65370091293298],[0.41443510456690547,52.65912517089642],[0.41588204436209253,52.6645035384943],[0.41790631319872773,52.66981296361272],[0.42049944034567943,52.67503068128743],[0.4236505049666448,52.68013431168136],[0.42734617972791966,52.68510195654352],[0.4315707850032595,52.68991229372571],[0.4363063534955245,52.6945446693396],[0.4415327050419364,52.69897918714515],[0.44722753131975423,52.70319679477136],[0.4533664901211978,52.70717936638271],[0.4599233088144956,52.71090978141866],[0.46686989656427613,52.7143719990497],[0.47417646483415865,52.7175511280116],[0.48181165565529227,52.72043349149869],[0.4897426770974107,52.72300668681917],[0.4979354453431597,52.725259639537846],[0.5063547327306424,52.727182651856616],[0.5149643210908152,52.72876744500899],[0.5237271596848814,52.73000719547184],[0.5326055270111283,52.73089656482626],[0.5415611957389501,52.73143172312831],[0.5505556000000524,52.7316103656809],[0.5595500042610411,52.73143172312831],[0.5685056729888629,52.73089656482626],[0.5773840403151098,52.73000719547184],[0.5861468789091759,52.72876744500899],[0.5947564672693488,52.727182651856616],[0.6031757546568315,52.725259639537846],[0.6113685229025805,52.72300668681917],[0.6192995443446989,52.72043349149869],[0.626257457574732,52.717806807305664],[0.7416359217469335,52.762986332738784],[0.8015610599317142,52.707112719334226],[0.6860746641976903,52.6619152272772],[0.6858754700853273,52.66210114642958],[0.6866760954330857,52.65912517089642],[0.6875397184368239,52.65370091293298],[0.687816541944926,52.648254004799284],[0.6875055995180901,52.64280777504288],[0.6866084413717317,52.63738554060435],[0.6851291239979673,52.632010507056485],[0.6830741891296839,52.626705669467704],[0.6804526321976709,52.62149371430961],[0.6772758604761293,52.6163969228225],[0.6735576411537068,52.6114370762434],[0.6693140396012041,52.6066353632913],[0.6645633481505229,52.602012290293075],[0.6593260057273937,52.597587594319705],[0.6536245087179395,52.5933801596889],[0.6474833134757318,52.58940793817402],[0.6409287309063529,52.58568787324282],[0.6339888135930778,52.58223582863141],[0.6266932359462771,52.579066521540234],[0.6190731678890415,52.57619346071904],[0.6111611426018726,52.57362888968716],[0.6029909188755482,52.57138373531432],[0.5945973386302512,52.56946756196515],[0.5860161801774666,52.56788853138788],[0.5772840078095669,52.566653368504895],[0.5684380183153053,52.56576733323906],[0.559515885025462,52.56523419848613],[0.5505556000000524,52.565056234319115],[0.5415953149745292,52.56523419848613],[0.5326731816846859,52.56576733323906],[0.5238271921904243,52.566653368504895],[0.5150950198225246,52.56788853138788],[0.50651386136974,52.56946756196515],[0.49812028112444295,52.57138373531432],[0.4899500573981186,52.57362888968716],[0.48203803211094964,52.57619346071904],[0.47488224488475694,52.57889146968299],[0.47500515501792506,52.578776532378775]]]},"properties":{"source":"UK MIL AIP ENR 6-17 chart reproduction","airspace_type":"MATZ","name":"Marham","members":["Marham"],"chart_geometry":true,"internal_boundaries":false}},{"type":"Feature","geometry":{"type":"Polygon","coordinates":[[[-2.930150564848418,51.04623454312556],[-2.921524526958251,51.04569944447122],[-2.912972920440666,51.04481017338876],[-2.9045325538646694,51.043570558131506],[-2.8962397493777416,51.04198593479265],[-2.8881301840841616,51.040063123974704],[-2.88023873441432,51.03781040097917],[-2.8725993242001095,51.0352374596547],[-2.8652447771526113,51.03235537007084],[-2.858206674411008,51.02917653021294],[-2.8515247257718275,51.02571953099843],[-2.7723319837552367,51.03196741544745],[-2.7708922044013207,51.03497085467964],[-2.767853120898849,51.04007429005457],[-2.7642889914530997,51.045041712293546],[-2.7602149457006817,51.0498518030555],[-2.755648317464079,51.054483912669745],[-2.7506085724630793,51.058918149452154],[-2.7451172265115247,51.06313546584802],[-2.739197754519978,51.06711774101582],[-2.732875490676406,51.070847859480885],[-2.726177520217334,51.07430978550415],[-2.7191325632491044,51.07748863282856],[-2.7117708511185583,51.08037072948629],[-2.70412399587417,51.082943677370466],[-2.6962248533936872,51.08519640629878],[-2.6881073807910525,51.08711922232061],[-2.679806488745612,51.08870385004499],[-2.6713578894241437,51.089943468794],[-2.662797940692144,51.09083274241436],[-2.654163487332198,51.091367842609124],[-2.6454916999999796,51.0915464656809],[-2.636819912667761,51.091367842609124],[-2.628185459307815,51.09083274241436],[-2.619625510575929,51.089943468794],[-2.611176911254347,51.08870385004499],[-2.6028760192089067,51.08711922232061],[-2.5947585466063856,51.08519640629878],[-2.5868594041257893,51.082943677370466],[-2.579212548881401,51.08037072948629],[-2.571850836750855,51.07748863282856],[-2.564805879782625,51.07430978550415],[-2.558107909323553,51.070847859480885],[-2.551785645479981,51.06711774101582],[-2.5458661734884345,51.06313546584802],[-2.54037482753688,51.058918149452154],[-2.535335082535994,51.054483912669745],[-2.5314813811434203,51.05057495263498],[-2.400081987761041,51.06051166866933],[-2.387172904618751,50.99438660412902],[-2.5186205164170588,50.984446451000146],[-2.5186649289365324,50.9846739970183],[-2.5202358523046087,50.981433878024774],[-2.523298305146568,50.97633689022896],[-2.526882928985401,50.97137682004869],[-2.53097424351904,50.966574860030676],[-2.5355546194487033,50.961951520727624],[-2.540604355823689,50.95752654376229],[-2.5461017658695937,50.9533188182522],[-2.5520232709112634,50.94934630093671],[-2.5583435019678973,50.945625940331105],[-2.5650354085778417,50.94217360521459],[-2.572070374382747,50.93900401774061],[-2.5794183389817817,50.93613069143751],[-2.5870479255465852,50.9335658743479],[-2.5949265736686584,50.93132049753261],[-2.603020676897245,50.929404129144196],[-2.611295724410411,50.92782493425143],[-2.619716446251118,50.926589640573724],[-2.62824696154928,50.925703510260036],[-2.636850929142156,50.925170317823635],[-2.6454916999999796,50.92499233431911],[-2.654132470857917,50.925170317823635],[-2.662736438450679,50.925703510260036],[-2.671266953748841,50.926589640573724],[-2.679687675589662,50.92782493425143],[-2.687962723102828,50.929404129144196],[-2.6960568263313007,50.93132049753261],[-2.703935474453374,50.9335658743479],[-2.7115650610181774,50.93613069143751],[-2.718913025617212,50.93900401774061],[-2.7259479914221174,50.94217360521459],[-2.732639898032062,50.945625940331105],[-2.7389601290888095,50.94934630093671],[-2.744881634130479,50.9533188182522],[-2.750379044176384,50.95752654376229],[-2.755428780551256,50.961951520727624],[-2.7594533584904997,50.966013848722085],[-2.7594200648150036,50.96584320129058],[-2.8066422395080153,50.9621177055779],[-2.8068890680960976,50.95761521166001],[-2.807752352266675,50.95219291670494],[-2.8091764634515357,50.94681778421756],[-2.811155115611541,50.94151281097136],[-2.8136796582108445,50.936300685769446],[-2.816739116284907,50.93120369276942],[-2.820320240232718,50.92624361666124],[-2.8244075650743525,50.92144165009305],[-2.828983478877035,50.91681830372962],[-2.8340283000208046,50.91239331931437],[-2.839520362940675,50.90818558609208],[-2.845436111955223,50.90421306093381],[-2.851750202762446,50.90049269248867],[-2.858435611157688,50.89704034966958],[-2.8654637485069543,50.89387075476133],[-2.87280458348323,50.89099742141901],[-2.880426769560586,50.88843259780516],[-2.8882977777352608,50.88618721509174],[-2.8963840339339413,50.884270841531766],[-2.9046510605522826,50.88269164228208],[-2.913063621555011,50.88145634513626],[-2.921585870559852,50.88057021230232],[-2.930181501318316,50.880037018336395],[-2.9388139000000137,50.87985903431911],[-2.9474462986817116,50.880037018336395],[-2.9560419294401754,50.88057021230232],[-2.9645641784450163,50.88145634513626],[-2.972976739447745,50.88269164228208],[-2.981243766066086,50.884270841531766],[-2.9893300222647667,50.88618721509174],[-2.9972010304394416,50.88843259780516],[-3.0048232165167974,50.89099742141901],[-3.012164051493073,50.89387075476133],[-3.0191921888422257,50.89704034966958],[-3.0258775972375815,50.90049269248867],[-3.0321916880448043,50.90421306093381],[-3.0381074370593524,50.90818558609208],[-3.043599499979109,50.91239331931437],[-3.0486443211229926,50.91681830372962],[-3.053220234925675,50.92144165009305],[-3.057307559767196,50.92624361666124],[-3.0608886837150067,50.93120369276942],[-3.063948141789183,50.936300685769446],[-3.0664726843884864,50.94151281097136],[-3.068451336548492,50.94681778421756],[-3.0698754477333523,50.95219291670494],[-3.070738731903816,50.95761521166001],[-3.0710372976366216,50.96306146246094],[-3.0707696681118932,50.9685083517928],[-3.0699367908289332,50.973932551415416],[-3.0685420369471785,50.97931082211809],[-3.066591190199688,50.98462011343243],[-3.064092425367903,50.989837662673125],[-3.0610562763541793,50.99494109287701],[-3.057495593936096,50.99990850921322],[-3.0534254933324974,51.00471859344161],[-3.0488632917617906,51.00935069600329],[-3.043828436219883,51.013784925334974],[-3.038342421752418,51.018002234009636],[-3.032428700543619,51.021984501318116],[-3.0261125821925816,51.0257146119206],[-3.0194211255890195,51.02917653021294],[-3.012383022847416,51.03235537007084],[-3.005028475799918,51.0352374596547],[-2.9973890655857076,51.03781040097917],[-2.989497615915866,51.040063123974704],[-2.981388050622286,51.04198593479265],[-2.973095246135358,51.043570558131506],[-2.9646548795593617,51.04481017338876],[-2.9561032730417764,51.04569944447122],[-2.9474772351516094,51.04623454312556],[-2.9388139000000137,51.04641316568089],[-2.930150564848418,51.04623454312556]]]},"properties":{"source":"UK MIL AIP ENR 6-17 chart reproduction","airspace_type":"MATZ","name":"Merryfield / Yeovilton","members":["Merryfield","Yeovilton"],"chart_geometry":true,"internal_boundaries":false}},{"type":"Feature","geometry":{"type":"Polygon","coordinates":[[[-4.36488833647843,53.34239841549289],[-4.355804866304197,53.34186323441599],[-4.346799810629818,53.3409738275392],[-4.337911947024395,53.3397340254521],[-4.329179539691268,53.33814916746183],[-4.32064017208495,53.33622607820687],[-4.312330582704817,53.333973037777014],[-4.3042865048252,53.331399745478585],[-4.296542510899599,53.32851727741394],[-4.289131862348995,53.32533803807216],[-4.282086365416035,53.321875706155225],[-4.275436233730147,53.318145174890105],[-4.269209958193187,53.31416248710153],[-4.2634341847566475,53.309944765343445],[-4.2581336006132915,53.30551013740866],[-4.253330829288188,53.300877657555745],[-4.249046335061848,53.29606722381018],[-4.2452983371114215,53.29109949171302],[-4.242102733706815,53.285995784904316],[-4.239473036746745,53.280778002940416],[-4.237420316869702,53.27546852675522],[-4.2359531593232305,53.270090122182545],[-4.235077630722458,53.26466584196407],[-4.234797256781121,53.2592189266704],[-4.235113011044746,53.25377270496595],[-4.236023314609383,53.248350493647806],[-4.2375240467602,53.2429754978878],[-4.239608566418042,53.237670712102904],[-4.242267744237665,53.23245882187425],[-4.245490005158331,53.227362107328084],[-4.2492613811648425,53.222402348382914],[-4.253565573981291,53.21760073225762],[-4.258384027378725,53.212977763622916],[-4.263696008746706,53.20855317776606],[-4.269478699543697,53.20434585712392],[-4.27570729421052,53.200373751523976],[-4.282355107106582,53.19665380245623],[-4.28939368699605,53.193201871680856],[-4.296792938594194,53.19003267445774],[-4.304521250656194,53.187159717664386],[-4.312545630077011,53.18459524304805],[-4.320831841445738,53.18235017583651],[-4.329344551491317,53.18043407891045],[-4.338047477833584,53.17885511271724],[-4.346903541449478,53.17762000108353],[-4.355875022247346,53.17673400306015],[-4.364923717140869,53.17620089090919],[-4.3740110999999615,53.176022934319114],[-4.383098482859168,53.17620089090919],[-4.392147177752577,53.17673400306015],[-4.401118658550558,53.17762000108353],[-4.409974722166339,53.17885511271724],[-4.418677648508719,53.18043407891045],[-4.427190358554299,53.18235017583651],[-4.435476569923026,53.18459524304805],[-4.441764158910746,53.186604664775466],[-4.4437011033089675,53.18552051669778],[-4.450737853048736,53.18206858381907],[-4.458135181546368,53.17889938456594],[-4.4658614857432894,53.17602642585051],[-4.473883781065069,53.17346194945273],[-4.482167840941543,53.17121688063075],[-4.490678341215016,53.169300782292645],[-4.499379008855158,53.16772181490985],[-4.508232774385533,53.16648670232923],[-4.517201927420956,53.16560070361774],[-4.526248274700492,53.165067591049166],[-4.5353333000000475,53.1648896343191],[-4.544418325299489,53.165067591049166],[-4.553464672579025,53.16560070361774],[-4.562433825614448,53.16648670232923],[-4.571287591144937,53.16772181490985],[-4.579988258784965,53.169300782292645],[-4.588498759058439,53.17121688063075],[-4.596782818934912,53.17346194945273],[-4.604805114256692,53.17602642585051],[-4.612531418453614,53.17889938456594],[-4.619928746951246,53.18206858381907],[-4.626965496691014,53.18552051669778],[-4.6336115801950655,53.18924046790632],[-4.639838553622326,53.193212575648026],[-4.645619738283358,53.19741989839635],[-4.650930335097087,53.20184448628785],[-4.6557475314980366,53.206467456850916],[-4.660050600324098,53.21126907476533],[-4.663820990242357,53.216228835329765],[-4.667042407297799,53.221325551297646],[-4.669700887201657,53.22653744272608],[-4.671784858006276,53.23184222946824],[-4.673285192851722,53.23721722592654],[-4.674195252502841,53.242639437671976],[-4.674510917437374,53.248085659525294],[-4.674230609284564,53.25353257468675],[-4.673355301459424,53.25895685449411],[-4.671888518879086,53.26433525838367],[-4.669836326696895,53.26964473362538],[-4.668736683756362,53.271827181351526],[-4.668965324847932,53.27166432750987],[-4.776005110432038,53.32505861064208],[-4.704263845627338,53.3760937497395],[-4.597361560748005,53.32272332270196],[-4.596997723222216,53.32283974422658],[-4.588690300889311,53.32509278303572],[-4.5801531607919514,53.32701587086906],[-4.57142303177659,53.32860072766126],[-4.56253748741517,53.32984052879445],[-4.553534781842927,53.330729934977896],[-4.544453682420794,53.33126511563397],[-4.5353333000000475,53.33144376568089],[-4.526212917579187,53.33126511563397],[-4.517131818157054,53.330729934977896],[-4.508129112584811,53.32984052879445],[-4.499243568223392,53.32860072766126],[-4.49051343920803,53.32701587086906],[-4.48197629911067,53.32509278303572],[-4.473668876777765,53.32283974422658],[-4.467650338372152,53.320913919187944],[-4.465935834583888,53.321875706155225],[-4.458890337650928,53.32533803807216],[-4.451479689100438,53.32851727741394],[-4.443735695174723,53.331399745478585],[-4.43569161729522,53.333973037777014],[-4.427382027915087,53.33622607820687],[-4.418842660308769,53.33814916746183],[-4.410110252975528,53.3397340254521],[-4.401222389370105,53.3409738275392],[-4.392217333695839,53.34186323441599],[-4.383133863521607,53.34239841549289],[-4.3740110999999615,53.342577065680906],[-4.36488833647843,53.34239841549289]]]},"properties":{"source":"UK MIL AIP ENR 6-17 chart reproduction","airspace_type":"MATZ","name":"Mona / Valley","members":["Mona","Valley"],"chart_geometry":true,"internal_boundaries":false}},{"type":"Feature","geometry":{"type":"Polygon","coordinates":[[[-0.9349827731725782,51.31729014000878],[-0.9263058655224086,51.316755032057735],[-0.9177038320718793,51.315865745658556],[-0.9092137002977552,51.31462610932804],[-0.9008720082629225,51.313041459521806],[-0.8927146450216696,51.31111861729752],[-0.8847766940361907,51.308865858496695],[-0.8770922803253143,51.30629287758345],[-0.8696944220448586,51.30341074530772],[-0.8626148871745727,51.30023186038834],[-0.8558840559592227,51.29676989543888],[-0.8495307897170505,51.29303973738469],[-0.8435823065984778,51.289057422644355],[-0.8380640648350663,51.28484006737137],[-0.8329996539833928,51.28040579307391],[-0.8284106946241536,51.275773647949606],[-0.8243167469311175,51.27096352429074],[-0.8207352284842955,51.26599607233107],[-0.8176813416475852,51.26089261091993],[-0.8151680107906714,51.25567503542138],[-0.8132058295805109,51.25036572324665],[-0.8118030185248699,51.24498743743638],[-0.8109653928977423,51.239563228715554],[-0.8106963411291872,51.234116336448494],[-0.8109968136982388,51.228670088923415],[-0.8118653225143362,51.223247803397015],[-0.8132979507334994,51.217872686327766],[-0.8152883729076166,51.21256773422348],[-0.8178278853224583,51.207355635523925],[-0.8209054463396797,51.20225867393209],[-0.824507726519073,51.19729863359974],[-0.8286191682565232,51.192496706562636],[-0.8332220546418512,51.18787340280935],[-0.8382965872012846,51.18344846335501],[-0.8438209721637122,51.179240776676366],[-0.8497715148541829,51.175268298849794],[-0.8561227217943497,51.17154797771666],[-0.8628474100622725,51.168095681382916],[-0.8699168234406898,51.164926131340664],[-0.8773007548609257,51.162052840480285],[-0.8849676746314117,51.15948805624041],[-0.8928848639199032,51.15724270912229],[-0.901018552945061,51.1553263667727],[-0.9093340633178286,51.153747193817075],[-0.9177959539622407,51.15251191760133],[-0.9263681700332427,51.15162579997718],[-0.935014194243081,51.15109261524194],[-0.9436971999999741,51.150914634319115],[-0.952380205756981,51.15109261524194],[-0.9610262299668193,51.15162579997718],[-0.9695984460377076,51.15251191760133],[-0.9780603366821197,51.153747193817075],[-0.9863758470548873,51.1553263667727],[-0.9945095360800451,51.15724270912229],[-1.0024267253685366,51.15948805624041],[-1.0100936451390226,51.162052840480285],[-1.0174775765593722,51.164926131340664],[-1.0245469899376758,51.168095681382916],[-1.0312716782057123,51.17154797771666],[-1.0376228851457654,51.175268298849794],[-1.043573427836236,51.179240776676366],[-1.0490978127986637,51.18344846335501],[-1.0541723453580971,51.18787340280935],[-1.0587752317434251,51.192496706562636],[-1.062886673480989,51.19729863359974],[-1.0664889536603823,51.20225867393209],[-1.0682008079372867,51.20509379416249],[-1.0682205557184261,51.20485787910801],[-1.2010742819043116,51.20900328805348],[-1.1955047128375327,51.27553363788074],[-1.0627145087663648,51.271390195350655],[-1.0589837053759084,51.275773647949606],[-1.0543947460165555,51.28040579307391],[-1.049330335164882,51.28484006737137],[-1.0438120934014705,51.289057422644355],[-1.0378636102828978,51.29303973738469],[-1.0315103440407256,51.29676989543888],[-1.0247795128253756,51.30023186038834],[-1.0176999779552034,51.30341074530772],[-1.010302119674634,51.30629287758345],[-1.0026177059638712,51.308865858496695],[-0.9946797549782787,51.31111861729752],[-0.9865223917370258,51.313041459521806],[-0.9781806997021931,51.31462610932804],[-0.9696905679281826,51.315865745658556],[-0.9610885344776534,51.316755032057735],[-0.9524116268273701,51.31729014000878],[-0.9436971999999741,51.31746876568089],[-0.9349827731725782,51.31729014000878]]]},"properties":{"source":"UK MIL AIP ENR 6-17 chart reproduction","airspace_type":"MATZ","name":"Odiham","members":["Odiham"],"chart_geometry":true,"internal_boundaries":false}},{"type":"Feature","geometry":{"type":"Polygon","coordinates":[[[-2.6128913442958037,52.633996662222614],[-2.722664255704103,52.633996662222614],[-2.722768983131118,52.717273689620306],[-2.7226229004758293,52.717273689620306],[-2.728585006324465,52.718906608143364],[-2.7365233799000634,52.72147115649444],[-2.7441688323109474,52.72434419284418],[-2.751488722515546,52.72751347409011],[-2.7584517770936827,52.73096549192293],[-2.76502822293412,52.734685529598714],[-2.771189913965827,52.73865772384615],[-2.776910451405456,52.74286513166277],[-2.782165297010124,52.74728980173295],[-2.786931878849714,52.75191285018142],[-2.791189689132011,52.75671454035678],[-2.7949203736459367,52.761674366321785],[-2.798107812410194,52.76677113971025],[-2.8007381911495486,52.77198307959536],[-2.802800063252448,52.77728790499883],[-2.8042844018947335,52.7826629296585],[-2.80518464205727,52.78808515865917],[-2.8054967121989876,52.793531386522375],[-2.805219055388534,52.79897829634124],[-2.8043526397437972,52.80440255954068],[-2.802900958066857,52.80978093583711],[-2.8008700166134304,52.81509037296894],[-2.7982683129806674,52.82030810576731],[-2.7951068031446766,52.82541175413714],[-2.7913988577302007,52.83037941952037],[-2.787160207645343,52.83518977941784],[-2.782408879261766,52.83982217955245],[-2.7771651193755815,52.84425672326417],[-2.771451310230873,52.84847435773796],[-2.7652918749397486,52.85245695667792],[-2.758713173680917,52.85618739905458],[-2.751743391108107,52.85964964356915],[-2.7444124154427527,52.862828798495656],[-2.736751709773671,52.86571118658243],[-2.7287941761250067,52.868284404714885],[-2.7228156160659127,52.869923001919645],[-2.7229622966308398,52.869923001919645],[-2.7230684977373585,52.95320002889983],[-2.6124871022625484,52.95320002889983],[-2.612502854200701,52.94084823124417],[-2.6089671443043017,52.94237872720837],[-2.601292374087734,52.94526112883509],[-2.593320226099877,52.94783435952356],[-2.585084961902794,52.950087344230546],[-2.5766219930769694,52.95201038460795],[-2.5679677270625234,52.95359520140669],[-2.55915940837383,52.954834970696865],[-2.5502349559193362,52.95572435373565],[-2.541232797177713,52.956259520343664],[-2.5321916999999985,52.95643816568088],[-2.523150602822284,52.956259520343664],[-2.5141484440806607,52.95572435373565],[-2.505223991626167,52.954834970696865],[-2.4964156729374736,52.95359520140669],[-2.4877614069230276,52.95201038460795],[-2.479298438097203,52.950087344230546],[-2.47106317390012,52.94783435952356],[-2.463091025912263,52.94526112883509],[-2.4554162556956953,52.94237872720837],[-2.44807182596287,52.939199557990634],[-2.4410892577481036,52.93573729867912],[-2.4344984942229075,52.93200684125385],[-2.428327771755903,52.92802422727199],[-2.4226034987842695,52.92380657802108],[-2.417350143015824,52.91937202005045],[-2.4125901274409216,52.91473960641953],[-2.408343735584367,52.909929234019486],[-2.40462902637978,52.90496155734146],[-2.4014617590006537,52.89985789907771],[-2.398855327932665,52.89464015795535],[-2.3968207085193853,52.889330714211475],[-2.3953664131640835,52.883952333127525],[-2.3944984583207543,52.878528067046375],[-2.394220342354515,52.873081156300216],[-2.394533034305141,52.86763492947929],[-2.3954349735363394,52.862212703471855],[-2.3969220802086966,52.85683768370452],[-2.398987776463855,52.8515328650081],[-2.401623018170426,52.846320933529526],[-2.40481633703007,52.84122417010278],[-2.4085538928101187,52.836264355484026],[-2.41281953542466,52.83146267784516],[-2.417594876550993,52.82683964290907],[-2.4228593704350487,52.82241498709616],[-2.4285904035033354,52.8182075940382],[-2.43476339237327,52.81423541479884],[-2.4413518898206803,52.810515392124515],[-2.4483276982416555,52.80706338903068],[-2.4556609901192132,52.80389412200999],[-2.4633204349838707,52.801021099129365],[-2.4712733323392513,52.79845656326177],[-2.479485750003846,52.79621144067813],[-2.4879226673064068,52.79429529520178],[-2.49654812255676,52.79271628810651],[-2.505325364203827,52.79148114391506],[-2.5142170050810364,52.79059512223224],[-2.5231851791317013,52.79006199572267],[-2.5302657013170884,52.78992209046019],[-2.5303709579427505,52.78808515865917],[-2.531271198105287,52.7826629296585],[-2.5327555367475725,52.77728790499883],[-2.5348174088503583,52.77198307959536],[-2.5374477875898265,52.76677113971025],[-2.54063522635397,52.761674366321785],[-2.5443659108678958,52.75671454035678],[-2.5486237211503067,52.75191285018142],[-2.5533903029898966,52.74728980173295],[-2.5586451485945645,52.74286513166277],[-2.5643656860341935,52.73865772384615],[-2.5705273770659005,52.734685529598714],[-2.577103822906338,52.73096549192293],[-2.5840668774844744,52.72751347409011],[-2.591386767689073,52.72434419284418],[-2.599032220099957,52.72147115649444],[-2.6069705936754417,52.718906608143364],[-2.61293269952416,52.717273689620306],[-2.6127866168687888,52.717273689620306],[-2.6128913442958037,52.633996662222614]]]},"properties":{"source":"UK MIL AIP ENR 6-17 chart reproduction","airspace_type":"MATZ","name":"Shawbury / Tern Hill","members":["Shawbury","Tern Hill"],"chart_geometry":true,"internal_boundaries":false}},{"type":"Feature","geometry":{"type":"Polygon","coordinates":[[[-3.1766681052071135,53.72106625104255],[-3.121745912653637,53.62657824432908],[-2.5893027699187314,53.7350267769245],[-2.644366810037468,53.82951478358185],[-3.1766681052071135,53.72106625104255]]]},"properties":{"source":"UK MIL AIP ENR 6-17 chart reproduction","airspace_type":"MATZ","name":"Warton","members":["Warton"],"chart_geometry":true,"internal_boundaries":false}},{"type":"Feature","geometry":{"type":"Polygon","coordinates":[[[0.9003482598309347,52.051354634044216],[0.7998516212577442,51.9955100639592],[0.7274111657708318,52.0450195929174],[0.8277850541513297,52.100846272917146],[0.825424319126455,52.105595946929434],[0.8233937822814141,52.110900827566184],[0.8219321235344523,52.11627589251264],[0.821045802765525,52.12169814615921],[0.8207388235902044,52.12714438260005],[0.821012712659126,52.132591284775586],[0.8218665094947255,52.13801552423555],[0.8232967669682694,52.14339386109687],[0.8252975624778855,52.14870324376752],[0.8278605198426021,52.15392090800613],[0.8309748418765821,52.15902447488735],[0.8346273535627233,52.16399204724523],[0.8388025556920411,52.168802304171464],[0.8434826887900044,52.173434593151356],[0.8486478070964267,52.17786901942871],[0.8542758623198097,52.18208653220126],[0.8603427968367896,52.186069007260066],[0.8668226459590187,52.18979932570119],[0.8736876488435428,52.19326144835318],[0.8809083675768079,52.196440485582826],[0.8884538139202505,52.19932276216029],[0.896291583162224,52.20189587688728],[0.9043879944852051,52.20414875671396],[0.9127082372187942,52.206071705095525],[0.921216522316513,52.20765644436506],[0.9298762383695021,52.208896151926254],[0.9386501114368002,52.209785490098234],[0.9475003679596057,52.21032062947359],[0.956388899999979,52.21049926568089],[0.965277432040466,52.21032062947359],[0.9741276885631578,52.209785490098234],[0.9829015616305696,52.208896151926254],[0.991561277683445,52.20765644436506],[1.0000695627812775,52.206071705095525],[1.0083898055147529,52.20414875671396],[1.012533379425894,52.20299577995645],[1.0125177603035809,52.203006417124065],[1.1136378716911395,52.25860748182767],[1.186426387616848,52.20909795296477],[1.085215250402257,52.15349688823619],[1.085080475910114,52.1535886743708],[1.0874802375221861,52.14870324376752],[1.0894810330318023,52.14339386109687],[1.0909112905052325,52.13801552423555],[1.0917650873409457,52.132591284775586],[1.0920389764098672,52.12714438260005],[1.091731997234433,52.12169814615921],[1.0908456764656194,52.11627589251264],[1.0893840177186576,52.110900827566184],[1.0873534808736167,52.105595946929434],[1.0847629509894432,52.10038393781394],[1.0816236970223372,52.09528708238573],[1.0779493205808421,52.0903271629775],[1.0737556949869713,52.085525369554965],[1.0690608949486204,52.08090220982137],[1.063885117186146,52.07647742233018],[1.0582505923836152,52.07226989296231],[1.0521814888674044,52.06829757510846],[1.0457038084458645,52.064577413880194],[1.038845274862524,52.061125274656014],[1.0316352153463413,52.05795587624933],[1.024104435760023,52.05508272896609],[1.0162850898674378,52.052518077798645],[1.0082105432604749,52.05027285098153],[0.9999152324992338,52.048356614112905],[0.9914345200361367,52.04677753002233],[0.9828045455019492,52.04554232454298],[0.974062073946925,52.04465625832266],[0.9652443416355254,52.04412310478383],[0.956388899999979,52.04394513431912],[0.9475334583645463,52.04412310478383],[0.9387157260531467,52.04465625832266],[0.9299732544981225,52.04554232454298],[0.9213432799638213,52.04677753002233],[0.9128625675007243,52.048356614112905],[0.9045672567395968,52.05027285098153],[0.9001224185422403,52.05150879281258],[0.9003482598309347,52.051354634044216]]]},"properties":{"source":"UK MIL AIP ENR 6-17 chart reproduction","airspace_type":"MATZ","name":"Wattisham","members":["Wattisham"],"chart_geometry":true,"internal_boundaries":false}},{"type":"Feature","geometry":{"type":"Polygon","coordinates":[[[-0.5800325155602195,52.55882323741234],[-0.7109919189276752,52.53427050200485],[-0.7430367422118707,52.59798110330597],[-0.6121262817529823,52.62252802759045],[-0.6119163548601136,52.62384757037315],[-0.6104705604629999,52.62922593586742],[-0.6084479033639809,52.634535358080605],[-0.605856847804489,52.63975307209796],[-0.6027083061319445,52.64485669814477],[-0.5990155952229088,52.64982433804435],[-0.5947943823166497,52.65463466973335],[-0.5900626204409036,52.65926703941746],[-0.5848404736636894,52.663701550958194],[-0.5791502324524345,52.66791915209195],[-0.5730162194736295,52.67190171709453],[-0.5664646862128393,52.67563212551878],[-0.5595237008453751,52.67909433664872],[-0.5522230278298821,52.68227345933171],[-0.5445939997454161,52.685155816869994],[-0.5366693819311195,52.687729006673976],[-0.528483230528991,52.689981954403294],[-0.5200707445649186,52.691904962345646],[-0.5114681127378162,52.693489751809814],[-0.5027123556163815,52.6947294993361],[-0.4938411639656124,52.695618866556096],[-0.4848927339535294,52.69615402356263],[-0.4759056000000328,52.6963326656809],[-0.4669184660464225,52.69615402356263],[-0.4579700360344532,52.695618866556096],[-0.4490988443836841,52.6947294993361],[-0.44034308726213567,52.693489751809814],[-0.43174045543514694,52.691904962345646],[-0.42332796947096085,52.689981954403294],[-0.41514181806883244,52.687729006673976],[-0.4072172002545358,52.685155816869994],[-0.3995881721700698,52.68227345933171],[-0.39228749915457684,52.67909433664872],[-0.3853465137871126,52.67563212551878],[-0.3787949805264361,52.67190171709453],[-0.37266096754751743,52.66791915209195],[-0.3716529461778724,52.66717200765402],[-0.24034103998315004,52.69130649787597],[-0.2082278429136295,52.6275958965855],[-0.3396003711054618,52.603453521874115],[-0.33970542797670783,52.60366206332086],[-0.3399623584488154,52.60210793998229],[-0.3414404630636909,52.5967329042851],[-0.3434937223942143,52.591428063749646],[-0.3461131485914848,52.58621610489818],[-0.3492873438813149,52.58111930903439],[-0.3530025524478333,52.576159457470276],[-0.3572427221097314,52.571357739010175],[-0.3619895754806066,52.56673466007516],[-0.36722269026802223,52.5623099578377],[-0.3729195883321381,52.55810251672249],[-0.37905583309873236,52.5541302886136],[-0.38560513488732795,52.55041021709127],[-0.3925394636959254,52.54695816600403],[-0.39982916895371545,52.543788852662736],[-0.40744310573677467,52.54091578592362],[-0.4153487669171909,52.538351209406855],[-0.4235124207033323,52.53610605007558],[-0.4318992530086234,52.53418987237883],[-0.4404735140761886,52.532610838138865],[-0.44919866877239656,52.53137567234039],[-0.45803754995290547,52.53048963495589],[-0.46695251429719065,52.52995649891718],[-0.4759056000000328,52.52977853431911],[-0.48485868570276125,52.52995649891718],[-0.49377365004704643,52.53048963495589],[-0.5026125312275553,52.53137567234039],[-0.5113376859237633,52.532610838138865],[-0.5199119469913285,52.53418987237883],[-0.5282987792966196,52.53610605007558],[-0.536462433082761,52.538351209406855],[-0.5443680942631772,52.54091578592362],[-0.5519820310462364,52.543788852662736],[-0.5592717363041402,52.54695816600403],[-0.566206065112624,52.55041021709127],[-0.5727553669012195,52.5541302886136],[-0.5788916116678138,52.55810251672249],[-0.5801301466650831,52.55901723610335],[-0.5800325155602195,52.55882323741234]]]},"properties":{"source":"UK MIL AIP ENR 6-17 chart reproduction","airspace_type":"MATZ","name":"Wittering","members":["Wittering"],"chart_geometry":true,"internal_boundaries":false}}]}